NORAD_CAT_ID,OBJECT_NAME,OBJECT_TYPE,EPOCH,MEAN_MOTION,ECCENTRICITY,INCLINATION,RA_OF_ASC_NODE,ARG_OF_PERICENTER,MEAN_ANOMALY,BSTAR,MEAN_MOTION_DOT,MEAN_MOTION_DDOT,TLE_LINE0,TLE_LINE1,TLE_LINE2,SEMIMAJOR_AXIS,PERIOD,APOGEE,PERIGEE,DECAYED
53285.0,STARLINK-4173,PAYLOAD,2024-03-22 11:27:58,15.08846989,0.0002058,53.2172,163.8046,54.7464,305.372,0.00015261,2.142e-05,0.0,0 STARLINK-4173,1 53285U 22086AV  24082.47776189  .00002142  00000-0  15261-3 0  9993,2 53285  53.2172 163.8046 0002058  54.7464 305.3720 15.08846989 92759,6917.859,95.437,541.148,538.3,0.0
53285.0,STARLINK-4173,PAYLOAD,2024-03-22 13:03:20,15.08859983,0.0001753,53.2184,163.507,65.6531,294.4644,0.00027612,4.111e-05,0.0,0 STARLINK-4173,1 53285U 22086AV  24082.54398960  .00004111  00000-0  27612-3 0  9999,2 53285  53.2184 163.5070 0001753  65.6531 294.4644 15.08859983 92923,6917.819,95.436,540.897,538.472,0.0
53285.0,STARLINK-4173,PAYLOAD,2024-03-22 14:38:43,15.08860748,0.0001762,53.2186,163.209,67.8069,292.311,0.00028565,4.264e-05,0.0,0 STARLINK-4173,1 53285U 22086AV  24082.61022830  .00004264  00000-0  28565-3 0  9994,2 53285  53.2186 163.2090 0001762  67.8069 292.3110 15.08860748 92773,6917.817,95.436,540.901,538.463,0.0
53285.0,STARLINK-4173,PAYLOAD,2024-03-23 04:57:15,15.08819941,0.0001052,53.2192,160.5353,104.312,255.7989,-0.0001424,-2.552e-05,0.0,0 STARLINK-4173,1 53285U 22086AV  24083.20642948 -.00002552  00000-0 -14240-3 0  9993,2 53285  53.2192 160.5353 0001052 104.3120 255.7989 15.08819941 92865,6917.942,95.439,540.534,539.079,0.0
53285.0,STARLINK-4173,PAYLOAD,2024-03-23 11:18:47,15.08829819,0.0001839,53.217,159.3494,73.5428,286.5766,-0.00011052,-2.046e-05,0.0,0 STARLINK-4173,1 53285U 22086AV  24083.47138463 -.00002046  00000-0 -11052-3 0  9990,2 53285  53.2170 159.3494 0001839  73.5428 286.5766 15.08829819 92909,6917.912,95.438,541.049,538.504,0.0
53285.0,STARLINK-4173,PAYLOAD,2024-03-24 11:09:30,15.08879249,0.0001443,53.2179,154.8865,84.8492,275.2665,0.00012072,1.636e-05,0.0,0 STARLINK-4173,1 53285U 22086AV  24084.46494193  .00001636  00000-0  12072-3 0  9990,2 53285  53.2179 154.8865 0001443  84.8492 275.2665 15.08879249 93059,6917.76,95.435,540.624,538.627,0.0
53285.0,STARLINK-4173,PAYLOAD,2024-03-25 04:38:47,15.0884098,0.0001682,53.2176,151.6145,113.6058,246.5111,0.00018432,2.647e-05,0.0,0 STARLINK-4173,1 53285U 22086AV  24085.19360264  .00002647  00000-0  18432-3 0  9991,2 53285  53.2176 151.6145 0001682 113.6058 246.5111 15.08840980 93165,6917.877,95.437,540.906,538.579,0.0
53285.0,STARLINK-4173,PAYLOAD,2024-03-25 11:00:19,15.08855915,0.0001143,53.2164,150.4243,117.7745,242.3363,0.0003485,5.265e-05,0.0,0 STARLINK-4173,1 53285U 22086AV  24085.45855804  .00005265  00000-0  34850-3 0  9990,2 53285  53.2164 150.4243 0001143 117.7745 242.3363 15.08855915 93200,6917.832,95.437,540.487,538.906,0.0
53285.0,STARLINK-4173,PAYLOAD,2024-03-26 04:29:35,15.08830244,0.0001229,53.2158,147.1556,87.5178,272.5955,-0.00045094,-7.455e-05,0.0,0 STARLINK-4173,1 53285U 22086AV  24086.18721301 -.00007455  00000-0 -45094-3 0  9992,2 53285  53.2158 147.1556 0001229  87.5178 272.5955 15.08830244 93314,6917.91,95.438,540.625,538.925,0.0
53285.0,STARLINK-4173,PAYLOAD,2024-03-26 10:51:09,15.08821237,0.0001167,53.2169,145.9654,109.0844,251.0275,-0.00039679,-6.594e-05,0.0,0 STARLINK-4173,1 53285U 22086AV  24086.45219436 -.00006594  00000-0 -39679-3 0  9998,2 53285  53.2169 145.9654 0001167 109.0844 251.0275 15.08821237 93355,6917.938,95.439,540.61,538.995,0.0
53285.0,STARLINK-4173,PAYLOAD,2024-03-26 14:01:56,15.08818921,0.0001131,53.2171,145.3696,108.7023,251.4092,-0.00039484,-6.562e-05,0.0,0 STARLINK-4173,1 53285U 22086AV  24086.58467777 -.00006562  00000-0 -39484-3 0  9994,2 53285  53.2171 145.3696 0001131 108.7023 251.4092 15.08818921 93531,6917.945,95.439,540.592,539.027,0.0
53285.0,STARLINK-4173,PAYLOAD,2024-03-26 20:23:28,15.08830491,0.000132,53.2188,144.1836,113.4471,246.666,-0.00033216,-5.569e-05,0.0,0 STARLINK-4173,1 53285U 22086AV  24086.84962980 -.00005569  00000-0 -33216-3 0  9992,2 53285  53.2188 144.1836 0001320 113.4471 246.6660 15.08830491 93412,6917.909,95.438,540.688,538.861,0.0
53285.0,STARLINK-4173,PAYLOAD,2024-03-27 10:41:55,15.08837369,5.96e-05,53.2153,141.5026,110.8322,249.2734,1.2112e-05,-9.5e-07,0.0,0 STARLINK-4173,1 53285U 22086AV  24087.44578388 -.00000095  00000-0  12112-4 0  9995,2 53285  53.2153 141.5026 0000596 110.8322 249.2734 15.08837369 93508,6917.888,95.438,540.166,539.341,0.0
53285.0,STARLINK-4173,PAYLOAD,2024-03-27 20:14:13,15.08851398,8.47e-05,53.2173,139.7208,110.3743,249.734,5.9828e-05,6.65e-06,0.0,0 STARLINK-4173,1 53285U 22086AV  24087.84321389  .00000665  00000-0  59828-4 0  9993,2 53285  53.2173 139.7208 0000847 110.3743 249.7340 15.08851398 93564,6917.846,95.437,540.296,539.125,0.0
53285.0,STARLINK-4173,PAYLOAD,2024-03-28 10:32:42,15.08849498,0.0001192,53.2165,137.0469,125.574,234.5364,0.00065415,0.00010141,0.0,0 STARLINK-4173,1 53285U 22086AV  24088.43938433  .00010141  00000-0  65415-3 0  9991,2 53285  53.2165 137.0469 0001192 125.5740 234.5364 15.08849498 93650,6917.851,95.437,540.541,538.892,0.0
53285.0,STARLINK-4173,PAYLOAD,2024-03-28 20:05:01,15.0885162,7.54e-05,53.2146,135.2612,108.9308,251.1766,0.00045769,7.006e-05,0.0,0 STARLINK-4173,1 53285U 22086AV  24088.83682042  .00007006  00000-0  45769-3 0  9993,2 53285  53.2146 135.2612 0000754 108.9308 251.1766 15.08851620 93872,6917.845,95.437,540.231,539.188,0.0
53285.0,STARLINK-4173,PAYLOAD,2024-03-29 11:58:52,15.08851932,0.0001,53.215,132.2881,105.7345,254.3758,4.2283e-05,3.85e-06,0.0,0 STARLINK-4173,1 53285U 22086AV  24089.49921598  .00000385  00000-0  42283-4 0  9990,2 53285  53.2150 132.2881 0001000 105.7345 254.3758 15.08851932 93819,6917.844,95.437,540.401,539.017,0.0
53285.0,STARLINK-4173,PAYLOAD,2024-03-29 19:55:47,15.08845139,8.99e-05,53.2154,130.7995,94.5117,265.5978,-4.6392e-05,-1.026e-05,0.0,0 STARLINK-4173,1 53285U 22086AV  24089.83041611 -.00001026  00000-0 -46392-4 0  9997,2 53285  53.2154 130.7995 0000899  94.5117 265.5978 15.08845139 94023,6917.865,95.437,540.352,539.108,0.0
53285.0,STARLINK-4173,PAYLOAD,2024-03-30 02:17:20,15.08840627,0.0001162,53.2144,129.6108,92.9599,267.1526,-5.8152e-05,-1.213e-05,0.0,0 STARLINK-4173,1 53285U 22086AV  24090.09537897 -.00001213  00000-0 -58152-4 0  9998,2 53285  53.2144 129.6108 0001162  92.9599 267.1526 15.08840627 93905,6917.878,95.438,540.547,538.94,0.0
53285.0,STARLINK-4173,PAYLOAD,2024-03-30 10:14:16,15.08842031,0.0001138,53.2158,128.1277,84.8162,275.296,-3.8126e-05,-8.95e-06,0.0,0 STARLINK-4173,1 53285U 22086AV  24090.42657952 -.00000895  00000-0 -38126-4 0  9994,2 53285  53.2158 128.1277 0001138  84.8162 275.2960 15.08842031 94117,6917.874,95.437,540.526,538.952,0.0
53285.0,STARLINK-4173,PAYLOAD,2024-03-30 19:46:35,15.08844666,0.0001018,53.2156,126.3415,85.7388,274.372,2.0755e-05,4.3e-07,0.0,0 STARLINK-4173,1 53285U 22086AV  24090.82401933  .00000043  00000-0  20755-4 0  9996,2 53285  53.2156 126.3415 0001018  85.7388 274.3720 15.08844666 94172,6917.866,95.437,540.435,539.027,0.0
53285.0,STARLINK-4173,PAYLOAD,2024-03-31 08:29:40,15.08840573,0.0001065,53.2153,123.9632,84.6496,275.4617,0.00014471,2.016e-05,0.0,0 STARLINK-4173,1 53285U 22086AV  24091.35394347  .00002016  00000-0  14471-3 0  9994,2 53285  53.2153 123.9632 0001065  84.6496 275.4617 15.08840573 94094,6917.879,95.438,540.48,539.007,0.0
53285.0,STARLINK-4173,PAYLOAD,2024-03-31 19:37:22,15.08844267,0.0001077,53.2153,121.8817,80.3763,279.735,0.00013484,1.859e-05,0.0,0 STARLINK-4173,1 53285U 22086AV  24091.81762132  .00001859  00000-0  13484-3 0  9993,2 53285  53.2153 121.8817 0001077  80.3763 279.7350 15.08844267 94320,6917.867,95.437,540.477,538.987,0.0
53285.0,STARLINK-4173,PAYLOAD,2024-04-01 11:31:13,15.08847591,0.0001204,53.2158,118.9054,98.3291,261.7838,0.00018294,2.625e-05,0.0,0 STARLINK-4173,1 53285U 22086AV  24092.48001955  .00002625  00000-0  18294-3 0  9992,2 53285  53.2158 118.9054 0001204  98.3291 261.7838 15.08847591 94260,6917.857,95.437,540.555,538.889,0.0
53285.0,STARLINK-4173,PAYLOAD,2024-04-02 01:49:42,15.08837977,0.0001298,53.2156,116.2279,96.4754,263.6386,0.00021625,3.155e-05,0.0,0 STARLINK-4173,1 53285U 22086AV  24093.07618435  .00003155  00000-0  21625-3 0  9996,2 53285  53.2156 116.2279 0001298  96.4754 263.6386 15.08837977 94350,6917.887,95.438,540.65,538.854,0.0
53285.0,STARLINK-4173,PAYLOAD,2024-04-02 08:11:14,15.08840538,0.0001295,53.2157,115.0386,96.4099,263.704,0.00024754,3.654e-05,0.0,0 STARLINK-4173,1 53285U 22086AV  24093.34114290  .00003654  00000-0  24754-3 0  9996,2 53285  53.2157 115.0386 0001295  96.4099 263.7040 15.08840538 94553,6917.879,95.438,540.64,538.848,0.0
53285.0,STARLINK-4173,PAYLOAD,2024-04-03 08:02:02,15.08837018,0.0001189,53.2168,110.5808,96.6588,263.4539,1.6757e-05,-2.1e-07,0.0,0 STARLINK-4173,1 53285U 22086AV  24094.33474617 -.00000021  00000-0  16757-4 0  9999,2 53285  53.2168 110.5808 0001189  96.6588 263.4539 15.08837018 94549,6917.89,95.438,540.577,538.932,0.0
53285.0,STARLINK-4173,PAYLOAD,2024-04-03 17:34:20,15.08838436,0.0001223,53.2167,108.7965,94.3996,265.7136,-3.8218e-05,-8.96e-06,0.0,0 STARLINK-4173,1 53285U 22086AV  24094.73218679 -.00000896  00000-0 -38218-4 0  9994,2 53285  53.2167 108.7965 0001223  94.3996 265.7136 15.08838436 94765,6917.885,95.438,540.596,538.904,0.0
53285.0,STARLINK-4173,PAYLOAD,2024-04-04 07:52:49,15.08835886,0.0001252,53.2164,106.1197,97.3384,262.775,2.9407e-05,1.8e-06,0.0,0 STARLINK-4173,1 53285U 22086AV  24095.32834795  .00000180  00000-0  29407-4 0  9997,2 53285  53.2164 106.1197 0001252  97.3384 262.7750 15.08835886 94852,6917.893,95.438,540.624,538.892,0.0
53285.0,STARLINK-4173,PAYLOAD,2024-04-04 17:25:08,15.08836285,0.0001254,53.2166,104.3351,93.8093,266.3042,6.6792e-05,7.75e-06,0.0,0 STARLINK-4173,1 53285U 22086AV  24095.72578745  .00000775  00000-0  66792-4 0  9999,2 53285  53.2166 104.3351 0001254  93.8093 266.3042 15.08836285 94753,6917.892,95.438,540.624,538.889,0.0
